{"type":"FeatureCollection","metadata":{"source":"OpenStreetMap via Geofabrik Malta extract (water areas)","license":"ODbL https://www.openstreetmap.org/copyright"},"features":[{"type":"Feature","properties":{"fclass":"dock","name":"Dock 6"},"geometry":{"type":"Polygon","coordinates":[[[14.512587,35.886059],[14.513205,35.886332],[14.515092,35.883473],[14.514481,35.883201],[14.512587,35.886059]]]}},{"type":"Feature","properties":{"fclass":"water","name":"Qawra tad-Dwejra"},"geometry":{"type":"Polygon","coordinates":[[[14.190476,36.053763],[14.190897,36.054093],[14.191883,36.054126],[14.19179,36.053707],[14.191328,36.05339],[14.191021,36.053397],[14.190476,36.053763]]]}},{"type":"Feature","properties":{"fclass":"water","name":"G\u0127adira ta San Raflu"},"geometry":{"type":"Polygon","coordinates":[[[14.198851,36.036647],[14.198934,36.036803],[14.19926,36.036612],[14.199098,36.036466],[14.198851,36.036647]]]}},{"type":"Feature","properties":{"fclass":"dock","name":""},"geometry":{"type":"Polygon","coordinates":[[[14.498652,35.875831],[14.500221,35.878169],[14.500692,35.877952],[14.499135,35.875615],[14.498652,35.875831]]]}},{"type":"Feature","properties":{"fclass":"water","name":"Id-Dragunara"},"geometry":{"type":"Polygon","coordinates":[[[14.367599,35.997901],[14.367718,35.997935],[14.367854,35.997774],[14.367599,35.997901]]]}},{"type":"Feature","properties":{"fclass":"dock","name":"Dock 2"},"geometry":{"type":"Polygon","coordinates":[[[14.516143,35.886102],[14.516455,35.886212],[14.517391,35.885262],[14.517413,35.885022],[14.517099,35.885058],[14.516143,35.886102]]]}},{"type":"Feature","properties":{"fclass":"dock","name":"Dock 4"},"geometry":{"type":"Polygon","coordinates":[[[14.516369,35.880885],[14.51682,35.880915],[14.517065,35.878823],[14.516931,35.878515],[14.516666,35.878528],[14.516594,35.878675],[14.516369,35.880885]]]}},{"type":"Feature","properties":{"fclass":"dock","name":"Dock 5"},"geometry":{"type":"Polygon","coordinates":[[[14.515204,35.879119],[14.515599,35.880733],[14.515934,35.880673],[14.515551,35.879047],[14.515309,35.878894],[14.515204,35.879119]]]}},{"type":"Feature","properties":{"fclass":"water","name":""},"geometry":{"type":"Polygon","coordinates":[[[14.547782,35.862141],[14.547955,35.862282],[14.548115,35.86213],[14.547915,35.862014],[14.547782,35.862141]]]}},{"type":"Feature","properties":{"fclass":"water","name":""},"geometry":{"type":"Polygon","coordinates":[[[14.548088,35.8624],[14.548251,35.862541],[14.548426,35.862409],[14.548262,35.862267],[14.548088,35.8624]]]}},{"type":"Feature","properties":{"fclass":"water","name":"Tank Marittimu Baxx"},"geometry":{"type":"Polygon","coordinates":[[[14.53328,35.894262],[14.533607,35.894926],[14.534229,35.894726],[14.53465,35.89422],[14.533988,35.893785],[14.53328,35.894262]]]}},{"type":"Feature","properties":{"fclass":"water","name":""},"geometry":{"type":"Polygon","coordinates":[[[14.501764,35.863437],[14.502065,35.86357],[14.502035,35.863339],[14.501802,35.863296],[14.501764,35.863437]]]}},{"type":"Feature","properties":{"fclass":"water","name":""},"geometry":{"type":"Polygon","coordinates":[[[14.322209,36.012964],[14.322394,36.013144],[14.322459,36.013061],[14.322209,36.012964]]]}},{"type":"Feature","properties":{"fclass":"water","name":""},"geometry":{"type":"Polygon","coordinates":[[[14.277438,36.019107],[14.277568,36.019199],[14.277678,36.019089],[14.277567,36.019004],[14.277438,36.019107]]]}},{"type":"Feature","properties":{"fclass":"water","name":""},"geometry":{"type":"Polygon","coordinates":[[[14.27781,36.019086],[14.277922,36.019196],[14.278058,36.019089],[14.277949,36.018997],[14.27781,36.019086]]]}},{"type":"Feature","properties":{"fclass":"water","name":""},"geometry":{"type":"Polygon","coordinates":[[[14.455529,35.850004],[14.455804,35.850213],[14.456063,35.850072],[14.455737,35.849824],[14.455529,35.850004]]]}},{"type":"Feature","properties":{"fclass":"water","name":""},"geometry":{"type":"Polygon","coordinates":[[[14.270438,36.031507],[14.270688,36.031907],[14.270965,36.031851],[14.270725,36.031423],[14.270438,36.031507]]]}},{"type":"Feature","properties":{"fclass":"riverbank","name":""},"geometry":{"type":"Polygon","coordinates":[[[14.420014,35.9432],[14.421109,35.944784],[14.421214,35.944688],[14.420678,35.943957],[14.420286,35.943092],[14.420128,35.943252],[14.420196,35.943124],[14.420014,35.9432]]]}},{"type":"Feature","properties":{"fclass":"water","name":""},"geometry":{"type":"Polygon","coordinates":[[[14.283445,36.061027],[14.283637,36.061052],[14.283664,36.060833],[14.283445,36.061027]]]}},{"type":"Feature","properties":{"fclass":"dock","name":"Dock 3"},"geometry":{"type":"Polygon","coordinates":[[[14.51709,35.884422],[14.517288,35.884662],[14.518824,35.883833],[14.518837,35.883721],[14.51863,35.883592],[14.51709,35.884422]]]}},{"type":"Feature","properties":{"fclass":"dock","name":"Dock 7"},"geometry":{"type":"Polygon","coordinates":[[[14.514518,35.882002],[14.514578,35.882341],[14.515726,35.882199],[14.515672,35.881873],[14.514518,35.882002]]]}},{"type":"Feature","properties":{"fclass":"water","name":""},"geometry":{"type":"Polygon","coordinates":[[[14.409783,35.862886],[14.409994,35.862997],[14.410092,35.862888],[14.409897,35.862765],[14.409783,35.862886]]]}},{"type":"Feature","properties":{"fclass":"water","name":""},"geometry":{"type":"Polygon","coordinates":[[[14.410503,35.863554],[14.410645,35.863837],[14.410959,35.863533],[14.410642,35.863354],[14.410503,35.863554]]]}},{"type":"Feature","properties":{"fclass":"water","name":""},"geometry":{"type":"Polygon","coordinates":[[[14.413867,35.864018],[14.413955,35.864148],[14.414109,35.864069],[14.413867,35.864018]]]}},{"type":"Feature","properties":{"fclass":"water","name":""},"geometry":{"type":"Polygon","coordinates":[[[14.412169,35.862015],[14.412312,35.862035],[14.41232,35.861888],[14.412202,35.861871],[14.412169,35.862015]]]}},{"type":"Feature","properties":{"fclass":"water","name":""},"geometry":{"type":"Polygon","coordinates":[[[14.413133,35.862261],[14.413147,35.862377],[14.413296,35.862365],[14.413282,35.862249],[14.413133,35.862261]]]}},{"type":"Feature","properties":{"fclass":"water","name":""},"geometry":{"type":"Polygon","coordinates":[[[14.412231,35.862886],[14.412442,35.862965],[14.412506,35.862786],[14.412302,35.862742],[14.412231,35.862886]]]}},{"type":"Feature","properties":{"fclass":"water","name":""},"geometry":{"type":"Polygon","coordinates":[[[14.40093,35.918862],[14.401046,35.919012],[14.401279,35.918745],[14.401086,35.918693],[14.40093,35.918862]]]}},{"type":"Feature","properties":{"fclass":"water","name":""},"geometry":{"type":"Polygon","coordinates":[[[14.23097,36.052563],[14.231072,36.052645],[14.231111,36.052518],[14.231689,36.052436],[14.231756,36.052327],[14.231326,36.052255],[14.23097,36.052563]]]}},{"type":"Feature","properties":{"fclass":"water","name":""},"geometry":{"type":"Polygon","coordinates":[[[14.494128,35.883591],[14.494399,35.883625],[14.494238,35.883392],[14.494128,35.883591]]]}},{"type":"Feature","properties":{"fclass":"water","name":""},"geometry":{"type":"Polygon","coordinates":[[[14.420643,35.864796],[14.420815,35.864934],[14.420908,35.864858],[14.420736,35.864721],[14.420643,35.864796]]]}},{"type":"Feature","properties":{"fclass":"water","name":""},"geometry":{"type":"Polygon","coordinates":[[[14.405802,35.869129],[14.406054,35.869152],[14.406063,35.868948],[14.405815,35.86895],[14.405802,35.869129]]]}},{"type":"Feature","properties":{"fclass":"water","name":""},"geometry":{"type":"Polygon","coordinates":[[[14.406718,35.868549],[14.407063,35.868558],[14.407067,35.868453],[14.406722,35.868453],[14.406718,35.868549]]]}},{"type":"Feature","properties":{"fclass":"water","name":"Funtana Mu\u017cikali"},"geometry":{"type":"Polygon","coordinates":[[[14.541938,35.891197],[14.542077,35.891475],[14.542662,35.891765],[14.543075,35.891576],[14.54315,35.891327],[14.543119,35.891058],[14.542549,35.890693],[14.542417,35.890705],[14.542338,35.890931],[14.542102,35.890831],[14.541938,35.891197]]]}},{"type":"Feature","properties":{"fclass":"water","name":""},"geometry":{"type":"Polygon","coordinates":[[[14.411358,35.865845],[14.411444,35.865892],[14.41147,35.865748],[14.411358,35.865845]]]}},{"type":"Feature","properties":{"fclass":"water","name":""},"geometry":{"type":"Polygon","coordinates":[[[14.411789,35.865394],[14.411903,35.865415],[14.411986,35.865122],[14.411872,35.865101],[14.411789,35.865394]]]}},{"type":"Feature","properties":{"fclass":"water","name":""},"geometry":{"type":"Polygon","coordinates":[[[14.515762,35.901535],[14.516653,35.902045],[14.515864,35.901438],[14.515762,35.901535]]]}},{"type":"Feature","properties":{"fclass":"water","name":""},"geometry":{"type":"Polygon","coordinates":[[[14.33836,35.967149],[14.338528,35.967266],[14.338674,35.967131],[14.338506,35.967013],[14.33836,35.967149]]]}},{"type":"Feature","properties":{"fclass":"water","name":""},"geometry":{"type":"Polygon","coordinates":[[[14.338306,35.967501],[14.338474,35.967619],[14.33862,35.967483],[14.338452,35.967365],[14.338306,35.967501]]]}},{"type":"Feature","properties":{"fclass":"water","name":""},"geometry":{"type":"Polygon","coordinates":[[[14.337846,35.967547],[14.337994,35.967588],[14.338028,35.967352],[14.337846,35.967547]]]}},{"type":"Feature","properties":{"fclass":"water","name":""},"geometry":{"type":"Polygon","coordinates":[[[14.338058,35.967287],[14.338185,35.967524],[14.338233,35.967286],[14.338058,35.967287]]]}},{"type":"Feature","properties":{"fclass":"water","name":""},"geometry":{"type":"Polygon","coordinates":[[[14.338011,35.967565],[14.338169,35.9676],[14.338071,35.967572],[14.338112,35.967361],[14.338011,35.967565]]]}},{"type":"Feature","properties":{"fclass":"water","name":""},"geometry":{"type":"Polygon","coordinates":[[[14.337869,35.96741],[14.33792,35.967489],[14.338065,35.967219],[14.337912,35.967236],[14.337869,35.96741]]]}},{"type":"Feature","properties":{"fclass":"water","name":""},"geometry":{"type":"Polygon","coordinates":[[[14.379994,35.861649],[14.380105,35.861691],[14.380179,35.861494],[14.380057,35.861469],[14.379994,35.861649]]]}},{"type":"Feature","properties":{"fclass":"water","name":""},"geometry":{"type":"Polygon","coordinates":[[[14.344983,35.970059],[14.345425,35.970195],[14.345311,35.97003],[14.345594,35.969856],[14.34568,35.969559],[14.345236,35.969487],[14.344983,35.970059]]]}},{"type":"Feature","properties":{"fclass":"water","name":""},"geometry":{"type":"Polygon","coordinates":[[[14.345655,35.970231],[14.347172,35.970744],[14.347617,35.970612],[14.348148,35.970186],[14.348854,35.970269],[14.348956,35.969956],[14.348822,35.969754],[14.348532,35.969691],[14.348214,35.96943],[14.347977,35.969125],[14.348114,35.969018],[14.348004,35.968875],[14.347464,35.968801],[14.346884,35.969122],[14.346695,35.969461],[14.345846,35.969775],[14.345655,35.970231]]]}},{"type":"Feature","properties":{"fclass":"water","name":""},"geometry":{"type":"Polygon","coordinates":[[[14.345888,35.970049],[14.346184,35.969691],[14.346098,35.970077],[14.345888,35.970049]]]}},{"type":"Feature","properties":{"fclass":"water","name":""},"geometry":{"type":"Polygon","coordinates":[[[14.345953,35.970221],[14.346149,35.970134],[14.347117,35.970396],[14.347066,35.970568],[14.347211,35.970683],[14.345953,35.970221]]]}},{"type":"Feature","properties":{"fclass":"water","name":""},"geometry":{"type":"Polygon","coordinates":[[[14.346422,35.970092],[14.346588,35.969938],[14.346739,35.970086],[14.346551,35.970203],[14.346422,35.970092]]]}},{"type":"Feature","properties":{"fclass":"water","name":""},"geometry":{"type":"Polygon","coordinates":[[[14.346642,35.969632],[14.346908,35.969446],[14.346943,35.969682],[14.346642,35.969632]]]}},{"type":"Feature","properties":{"fclass":"water","name":""},"geometry":{"type":"Polygon","coordinates":[[[14.3468,35.969348],[14.346902,35.969157],[14.347216,35.969077],[14.347441,35.968838],[14.347924,35.969027],[14.3468,35.969348]]]}},{"type":"Feature","properties":{"fclass":"water","name":""},"geometry":{"type":"Polygon","coordinates":[[[14.346905,35.970212],[14.34698,35.969988],[14.347109,35.970027],[14.347128,35.970171],[14.346905,35.970212]]]}},{"type":"Feature","properties":{"fclass":"water","name":""},"geometry":{"type":"Polygon","coordinates":[[[14.347074,35.96948],[14.34712,35.969359],[14.347278,35.969374],[14.347219,35.969519],[14.347074,35.96948]]]}},{"type":"Feature","properties":{"fclass":"water","name":""},"geometry":{"type":"Polygon","coordinates":[[[14.34716,35.969888],[14.347272,35.969832],[14.347441,35.970016],[14.347238,35.97003],[14.34716,35.969888]]]}},{"type":"Feature","properties":{"fclass":"water","name":""},"geometry":{"type":"Polygon","coordinates":[[[14.347337,35.97026],[14.347425,35.970149],[14.347675,35.970249],[14.347492,35.97037],[14.347337,35.97026]]]}},{"type":"Feature","properties":{"fclass":"water","name":""},"geometry":{"type":"Polygon","coordinates":[[[14.347463,35.969348],[14.347557,35.969203],[14.347734,35.969341],[14.347533,35.969446],[14.347463,35.969348]]]}},{"type":"Feature","properties":{"fclass":"water","name":""},"geometry":{"type":"Polygon","coordinates":[[[14.347506,35.969754],[14.347546,35.969546],[14.347803,35.969574],[14.347686,35.969808],[14.347506,35.969754]]]}},{"type":"Feature","properties":{"fclass":"water","name":""},"geometry":{"type":"Polygon","coordinates":[[[14.347667,35.970053],[14.347887,35.969938],[14.348115,35.970084],[14.347667,35.970053]]]}},{"type":"Feature","properties":{"fclass":"water","name":""},"geometry":{"type":"Polygon","coordinates":[[[14.347857,35.969365],[14.347914,35.969224],[14.34804,35.969404],[14.347857,35.969365]]]}},{"type":"Feature","properties":{"fclass":"water","name":""},"geometry":{"type":"Polygon","coordinates":[[[14.348125,35.969561],[14.34819,35.969498],[14.348356,35.969687],[14.348125,35.969561]]]}},{"type":"Feature","properties":{"fclass":"water","name":""},"geometry":{"type":"Polygon","coordinates":[[[14.348364,35.969839],[14.348504,35.96973],[14.34874,35.969782],[14.348774,35.970036],[14.348544,35.970079],[14.348364,35.969839]]]}},{"type":"Feature","properties":{"fclass":"water","name":""},"geometry":{"type":"Polygon","coordinates":[[[14.495639,35.877109],[14.496415,35.878784],[14.49655,35.878746],[14.496194,35.878073],[14.496717,35.878679],[14.496881,35.878629],[14.496196,35.877862],[14.495822,35.877058],[14.495639,35.877109]]]}},{"type":"Feature","properties":{"fclass":"water","name":"Victoria Duck Pond"},"geometry":{"type":"Polygon","coordinates":[[[14.249432,36.045779],[14.249546,36.045819],[14.249873,36.045251],[14.250328,36.044965],[14.250002,36.044933],[14.249432,36.045779]]]}},{"type":"Feature","properties":{"fclass":"water","name":""},"geometry":{"type":"Polygon","coordinates":[[[14.250172,36.044891],[14.250546,36.044896],[14.250426,36.044821],[14.250519,36.04459],[14.250172,36.044891]]]}},{"type":"Feature","properties":{"fclass":"water","name":""},"geometry":{"type":"Polygon","coordinates":[[[14.259647,36.071043],[14.259898,36.0711],[14.26001,36.070671],[14.259905,36.070637],[14.259647,36.071043]]]}},{"type":"Feature","properties":{"fclass":"water","name":""},"geometry":{"type":"Polygon","coordinates":[[[14.259964,36.070534],[14.26041,36.069607],[14.260322,36.06959],[14.259964,36.070534]]]}},{"type":"Feature","properties":{"fclass":"water","name":"L-G\u0127adira tal-Qawra"},"geometry":{"type":"Polygon","coordinates":[[[14.426198,35.959817],[14.426211,35.95997],[14.426392,35.960003],[14.42677,35.959978],[14.42682,35.959879],[14.426711,35.959761],[14.426198,35.959817]]]}},{"type":"Feature","properties":{"fclass":"water","name":""},"geometry":{"type":"Polygon","coordinates":[[[14.32763,36.018701],[14.328238,36.019489],[14.328413,36.019634],[14.328652,36.019612],[14.3282,36.019243],[14.328026,36.018881],[14.32763,36.018701]]]}},{"type":"Feature","properties":{"fclass":"water","name":""},"geometry":{"type":"Polygon","coordinates":[[[14.547816,35.861699],[14.548535,35.862308],[14.548744,35.862146],[14.548025,35.861537],[14.547816,35.861699]]]}},{"type":"Feature","properties":{"fclass":"water","name":""},"geometry":{"type":"Polygon","coordinates":[[[14.307035,36.028087],[14.307408,36.028249],[14.307273,36.028087],[14.307035,36.028087]]]}},{"type":"Feature","properties":{"fclass":"water","name":""},"geometry":{"type":"Polygon","coordinates":[[[14.343224,35.918905],[14.34332,35.918969],[14.343444,35.91884],[14.343224,35.918905]]]}},{"type":"Feature","properties":{"fclass":"water","name":""},"geometry":{"type":"Polygon","coordinates":[[[14.355992,35.890281],[14.356266,35.890235],[14.356034,35.890173],[14.355992,35.890281]]]}},{"type":"Feature","properties":{"fclass":"water","name":""},"geometry":{"type":"Polygon","coordinates":[[[14.506457,35.898005],[14.506582,35.898152],[14.506681,35.898097],[14.506457,35.898005]]]}},{"type":"Feature","properties":{"fclass":"water","name":""},"geometry":{"type":"Polygon","coordinates":[[[14.380245,35.945707],[14.380401,35.945532],[14.380581,35.94561],[14.380831,35.945292],[14.381287,35.945548],[14.381163,35.945912],[14.381344,35.945937],[14.381293,35.94606],[14.382025,35.94619],[14.382229,35.946081],[14.382413,35.945692],[14.382868,35.945739],[14.383171,35.945223],[14.382961,35.94515],[14.3828,35.945246],[14.382585,35.945065],[14.382469,35.945288],[14.381479,35.945176],[14.381254,35.945429],[14.38061,35.945057],[14.380245,35.945707]]]}},{"type":"Feature","properties":{"fclass":"water","name":""},"geometry":{"type":"Polygon","coordinates":[[[14.381261,35.945798],[14.381421,35.945524],[14.381401,35.945775],[14.381261,35.945798]]]}},{"type":"Feature","properties":{"fclass":"water","name":""},"geometry":{"type":"Polygon","coordinates":[[[14.381443,35.945875],[14.381504,35.945653],[14.381799,35.945617],[14.381666,35.946013],[14.381488,35.94603],[14.381443,35.945875]]]}},{"type":"Feature","properties":{"fclass":"water","name":""},"geometry":{"type":"Polygon","coordinates":[[[14.38153,35.945534],[14.381561,35.945302],[14.381727,35.945266],[14.381735,35.945494],[14.38153,35.945534]]]}},{"type":"Feature","properties":{"fclass":"water","name":""},"geometry":{"type":"Polygon","coordinates":[[[14.381743,35.946004],[14.381796,35.945927],[14.382135,35.94607],[14.381806,35.94616],[14.381743,35.946004]]]}},{"type":"Feature","properties":{"fclass":"water","name":""},"geometry":{"type":"Polygon","coordinates":[[[14.381866,35.945778],[14.38195,35.9457],[14.382197,35.945796],[14.381866,35.945778]]]}},{"type":"Feature","properties":{"fclass":"water","name":""},"geometry":{"type":"Polygon","coordinates":[[[14.381872,35.945471],[14.381942,35.945378],[14.382256,35.945557],[14.382056,35.945675],[14.381872,35.945471]]]}},{"type":"Feature","properties":{"fclass":"water","name":""},"geometry":{"type":"Polygon","coordinates":[[[14.38239,35.945513],[14.382796,35.945286],[14.382631,35.945593],[14.38239,35.945513]]]}},{"type":"Feature","properties":{"fclass":"water","name":""},"geometry":{"type":"Polygon","coordinates":[[[14.382588,35.945632],[14.383071,35.945228],[14.382854,35.94565],[14.382588,35.945632]]]}},{"type":"Feature","properties":{"fclass":"water","name":""},"geometry":{"type":"Polygon","coordinates":[[[14.458518,35.937221],[14.458707,35.937258],[14.458771,35.9371],[14.458518,35.937221]]]}},{"type":"Feature","properties":{"fclass":"water","name":""},"geometry":{"type":"Polygon","coordinates":[[[14.406099,35.910338],[14.406207,35.910433],[14.406427,35.910302],[14.406324,35.910217],[14.406099,35.910338]]]}},{"type":"Feature","properties":{"fclass":"water","name":""},"geometry":{"type":"Polygon","coordinates":[[[14.444083,35.949357],[14.444402,35.949604],[14.444528,35.949563],[14.44433,35.949164],[14.444083,35.949357]]]}},{"type":"Feature","properties":{"fclass":"water","name":""},"geometry":{"type":"Polygon","coordinates":[[[14.444674,35.948504],[14.444882,35.948731],[14.445178,35.948626],[14.444674,35.948504]]]}},{"type":"Feature","properties":{"fclass":"water","name":""},"geometry":{"type":"Polygon","coordinates":[[[14.41908,35.941328],[14.419158,35.941496],[14.419627,35.941331],[14.419553,35.941184],[14.41908,35.941328]]]}},{"type":"Feature","properties":{"fclass":"water","name":""},"geometry":{"type":"Polygon","coordinates":[[[14.542491,35.89119],[14.542617,35.891282],[14.542717,35.8912],[14.542618,35.891093],[14.542491,35.89119]]]}},{"type":"Feature","properties":{"fclass":"water","name":"Tank Marittimu Fond"},"geometry":{"type":"Polygon","coordinates":[[[14.534723,35.893311],[14.534898,35.893583],[14.535277,35.893617],[14.535617,35.893521],[14.535804,35.893309],[14.535497,35.892925],[14.535145,35.892854],[14.534939,35.892936],[14.534723,35.893311]]]}},{"type":"Feature","properties":{"fclass":"water","name":"Tank Marittimu Fond"},"geometry":{"type":"Polygon","coordinates":[[[14.534975,35.893333],[14.53523,35.893079],[14.535498,35.893262],[14.535282,35.893382],[14.534975,35.893333]]]}},{"type":"Feature","properties":{"fclass":"water","name":""},"geometry":{"type":"Polygon","coordinates":[[[14.493212,35.876309],[14.493224,35.876426],[14.494388,35.876372],[14.494442,35.876199],[14.493212,35.876309]]]}},{"type":"Feature","properties":{"fclass":"water","name":""},"geometry":{"type":"Polygon","coordinates":[[[14.487283,35.876862],[14.487303,35.877002],[14.493134,35.876445],[14.493111,35.876306],[14.492911,35.876313],[14.487283,35.876862]]]}},{"type":"Feature","properties":{"fclass":"water","name":"I\u017c-\u017berqa"},"geometry":{"type":"Polygon","coordinates":[[[14.188631,36.052981],[14.188876,36.05302],[14.188743,36.052852],[14.188631,36.052981]]]}},{"type":"Feature","properties":{"fclass":"water","name":""},"geometry":{"type":"Polygon","coordinates":[[[14.457266,35.939529],[14.457388,35.939572],[14.457464,35.939437],[14.457266,35.939529]]]}},{"type":"Feature","properties":{"fclass":"water","name":""},"geometry":{"type":"Polygon","coordinates":[[[14.385769,35.891136],[14.386183,35.891693],[14.386389,35.891572],[14.38597,35.891037],[14.385769,35.891136]]]}},{"type":"Feature","properties":{"fclass":"water","name":""},"geometry":{"type":"Polygon","coordinates":[[[14.389229,35.891775],[14.390161,35.892078],[14.390872,35.89255],[14.391057,35.892404],[14.390062,35.891851],[14.389246,35.891637],[14.389229,35.891775]]]}},{"type":"Feature","properties":{"fclass":"water","name":""},"geometry":{"type":"Polygon","coordinates":[[[14.217928,36.046617],[14.218118,36.046787],[14.218265,36.046542],[14.218056,36.046436],[14.217928,36.046617]]]}},{"type":"Feature","properties":{"fclass":"water","name":""},"geometry":{"type":"Polygon","coordinates":[[[14.483701,35.89525],[14.484359,35.895643],[14.484578,35.895411],[14.483915,35.895016],[14.483701,35.89525]]]}},{"type":"Feature","properties":{"fclass":"water","name":""},"geometry":{"type":"Polygon","coordinates":[[[14.338359,35.968013],[14.338498,35.96803],[14.338536,35.967834],[14.338397,35.967816],[14.338359,35.968013]]]}},{"type":"Feature","properties":{"fclass":"water","name":""},"geometry":{"type":"Polygon","coordinates":[[[14.277764,36.019322],[14.277861,36.019635],[14.277915,36.019304],[14.277764,36.019322]]]}},{"type":"Feature","properties":{"fclass":"water","name":""},"geometry":{"type":"Polygon","coordinates":[[[14.2776,36.019318],[14.277698,36.019631],[14.277751,36.019301],[14.2776,36.019318]]]}}]}