{"type":"FeatureCollection","metadata":{"source":"OpenStreetMap relation 365307 (land), water polygons from Geofabrik Malta","license":"ODbL https://www.openstreetmap.org/copyright"},"features":[{"type":"Feature","properties":{"name":"Malta islands (land)"},"geometry":{"type":"MultiPolygon","coordinates":[[[[13.936045,36.071576],[13.936171,36.078007],[13.936731,36.086739],[13.93776,36.095443],[13.93845,36.099779],[13.939715,36.106383],[13.941232,36.11276],[13.944352,36.123497],[13.947586,36.132899],[13.949182,36.137032],[13.951817,36.143293],[13.954652,36.149307],[13.956703,36.153351],[13.96113,36.161323],[13.965983,36.169132],[13.969952,36.174973],[13.97404,36.180504],[13.979915,36.187837],[13.98618,36.194954],[13.989455,36.198428],[13.994608,36.203611],[13.999832,36.208491],[14.007193,36.214884],[14.011002,36.217981],[14.014893,36.22101],[14.022916,36.226858],[14.031247,36.232415],[14.035523,36.235082],[14.044287,36.240186],[14.048771,36.24262],[14.060318,36.248395],[14.072115,36.253569],[14.086783,36.259124],[14.099374,36.263177],[14.10698,36.265297],[14.11731,36.267842],[14.123857,36.269235],[14.129312,36.27014],[14.13556,36.271543],[14.161967,36.276542],[14.167532,36.277405],[14.169091,36.277467],[14.18295,36.27962],[14.191697,36.280694],[14.202968,36.281641],[14.213682,36.282146],[14.229494,36.282489],[14.243842,36.282424],[14.253003,36.282036],[14.274061,36.280113],[14.294811,36.277437],[14.302787,36.276174],[14.313302,36.274184],[14.328847,36.270505],[14.336454,36.268384],[14.343965,36.266042],[14.409328,36.243091],[14.418871,36.2395],[14.425131,36.236936],[14.43429,36.232873],[14.445835,36.227097],[14.454734,36.22215],[14.463356,36.216893],[14.473872,36.209807],[14.653957,36.081062],[14.703328,36.046031],[14.706516,36.043627],[14.71348,36.038923],[14.717268,36.035878],[14.721729,36.032925],[14.726966,36.029184],[14.737813,36.020751],[14.752408,36.008301],[14.764325,35.9968],[14.768494,35.992498],[14.775515,35.984758],[14.783685,35.974954],[14.790674,35.965456],[14.795723,35.957735],[14.798091,35.953809],[14.800352,35.949842],[14.804552,35.941793],[14.807381,35.935778],[14.810032,35.929458],[14.813128,35.921085],[14.814507,35.916858],[14.816922,35.908338],[14.81842,35.90202],[14.820387,35.890341],[14.821696,35.87992],[14.822456,35.871705],[14.822786,35.861027],[14.822411,35.850672],[14.821834,35.843969],[14.820692,35.835486],[14.815602,35.808761],[14.812562,35.795572],[14.809692,35.785856],[14.806552,35.777494],[14.803969,35.771408],[14.802151,35.767594],[14.799224,35.761991],[14.79614,35.75657],[14.794333,35.752776],[14.787171,35.738902],[14.783797,35.732979],[14.778196,35.723914],[14.775174,35.719521],[14.770945,35.713815],[14.768055,35.710132],[14.761984,35.702925],[14.756407,35.696835],[14.746783,35.68749],[14.737677,35.679386],[14.727749,35.671459],[14.716513,35.663487],[14.708074,35.658099],[14.703749,35.655519],[14.694898,35.650592],[14.683553,35.644904],[14.668476,35.638292],[14.665256,35.636609],[14.655836,35.632227],[14.647571,35.628756],[14.635334,35.623983],[14.624203,35.620034],[14.613187,35.616632],[14.59787,35.612699],[14.586775,35.610375],[14.573684,35.608181],[14.565724,35.607158],[14.557643,35.60638],[14.48398,35.594488],[14.471694,35.591641],[14.456016,35.588809],[14.445453,35.587388],[14.434824,35.586344],[14.418802,35.585488],[14.410774,35.585369],[14.402943,35.585482],[14.388824,35.586169],[14.375201,35.587442],[14.364442,35.588885],[14.348764,35.591716],[14.339284,35.593939],[14.330206,35.596288],[14.316047,35.600521],[14.310424,35.602442],[14.299821,35.606394],[14.288597,35.610935],[14.276324,35.616757],[14.263054,35.623967],[14.254537,35.629157],[14.248318,35.633239],[14.237434,35.641072],[14.233558,35.64409],[14.226052,35.65033],[14.217062,35.65856],[14.212709,35.662917],[14.207037,35.668974],[14.199066,35.678378],[14.136189,35.762221],[14.130921,35.768457],[14.00548,35.899277],[13.997901,35.906249],[13.992897,35.911267],[13.986429,35.918251],[13.980341,35.925458],[13.974644,35.932873],[13.969349,35.940484],[13.964467,35.948274],[13.960006,35.956231],[13.955975,35.964338],[13.953126,35.970918],[13.950995,35.976444],[13.946732,35.989194],[13.945626,35.992967],[13.943225,36.002707],[13.94195,36.009251],[13.940841,36.016686],[13.940039,36.024839],[13.938993,36.039221],[13.937905,36.04613],[13.936818,36.056247],[13.93621,36.064929],[13.936045,36.071576]]]]}}]}