{"type":"FeatureCollection","features":[{"type":"Feature","geometry":{"type":"LineString","coordinates":[]},"properties":{"mmsi":2155001,"timestamps_start":[],"timestamps_end":[]}},{"type":"Feature","geometry":{"type":"LineString","coordinates":[[14.496139,35.902153]]},"properties":{"mmsi":256003495,"timestamps_start":[1791514784],"timestamps_end":[1791514993]}},{"type":"Feature","geometry":{"type":"LineString","coordinates":[[14.496045,35.902294]]},"properties":{"mmsi":256004608,"timestamps_start":[1791514792],"timestamps_end":[1791514992]}},{"type":"Feature","geometry":{"type":"LineString","coordinates":[[14.505874,35.907913]]},"properties":{"mmsi":229000498,"timestamps_start":[1791514811],"timestamps_end":[1791514991]}},{"type":"Feature","geometry":{"type":"LineString","coordinates":[[14.505435,35.908386]]},"properties":{"mmsi":249722000,"timestamps_start":[1791514792],"timestamps_end":[1791514991]}},{"type":"Feature","geometry":{"type":"LineString","coordinates":[[14.507281,35.907337]]},"properties":{"mmsi":256003265,"timestamps_start":[1791514810],"timestamps_end":[1791514989]}},{"type":"Feature","geometry":{"type":"LineString","coordinates":[[14.502675,35.908161]]},"properties":{"mmsi":256001241,"timestamps_start":[1791514788],"timestamps_end":[1791514988]}},{"type":"Feature","geometry":{"type":"LineString","coordinates":[[14.506802,35.9076]]},"properties":{"mmsi":248000413,"timestamps_start":[1791514786],"timestamps_end":[1791514986]}},{"type":"Feature","geometry":{"type":"LineString","coordinates":[]},"properties":{"mmsi":248000662,"timestamps_start":[],"timestamps_end":[]}},{"type":"Feature","geometry":{"type":"LineString","coordinates":[[14.504151,35.905834]]},"properties":{"mmsi":248000181,"timestamps_start":[1791514881],"timestamps_end":[1791514881]}},{"type":"Feature","geometry":{"type":"LineString","coordinates":[[14.502348,35.907993]]},"properties":{"mmsi":249000603,"timestamps_start":[1791514929],"timestamps_end":[1791514929]}},{"type":"Feature","geometry":{"type":"LineString","coordinates":[]},"properties":{"mmsi":235085879,"timestamps_start":[],"timestamps_end":[]}},{"type":"Feature","geometry":{"type":"LineString","coordinates":[[14.5173,35.891182]]},"properties":{"mmsi":319177600,"timestamps_start":[1791514856],"timestamps_end":[1791514856]}},{"type":"Feature","geometry":{"type":"LineString","coordinates":[[14.501288,35.907879]]},"properties":{"mmsi":256001242,"timestamps_start":[1791514821],"timestamps_end":[1791514821]}}]}

